NORAD_CAT_ID,OBJECT_NAME,OBJECT_TYPE,EPOCH,MEAN_MOTION,ECCENTRICITY,INCLINATION,RA_OF_ASC_NODE,ARG_OF_PERICENTER,MEAN_ANOMALY,BSTAR,MEAN_MOTION_DOT,MEAN_MOTION_DDOT,TLE_LINE0,TLE_LINE1,TLE_LINE2,SEMIMAJOR_AXIS,PERIOD,APOGEE,PERIGEE,DECAYED
53839.0,STARLINK-4784,PAYLOAD,2022-11-17 14:00:01,15.73126251,0.0004237,53.2154,324.137,5.2421,41.3277,-0.00046287,-0.0006492,0.0,0 STARLINK-4784,1 53839U 22114X   22321.58334491 -.00064920  00000-0 -46287-3 0  9998,2 53839  53.2154 324.1370 0004237   5.2421  41.3277 15.73126251  1301,6728.105,91.537,352.821,347.12,0.0
53839.0,STARLINK-4784,PAYLOAD,2022-11-17 22:00:00,15.73254632,0.0003854,53.2149,322.4857,2.1767,133.2758,-0.00083133,-0.00116031,0.0,0 STARLINK-4784,1 53839U 22114X   22321.91667824 -.00116031  00000-0 -83133-3 0  9996,2 53839  53.2149 322.4857 0003854   2.1767 133.2758 15.73254632 10006,6727.739000000001,91.53,352.19699999999995,347.01199999999994,0.0
53839.0,STARLINK-4784,PAYLOAD,2022-11-18 06:00:00,15.73073087,0.0003581,53.2167,320.8369,339.5075,244.9363,-0.0043993,-0.00574915,0.0,0 STARLINK-4784,1 53839U 22114X   22322.25001157 -.00574915  00000-0 -43993-2 0  9993,2 53839  53.2167 320.8369 0003581 339.5075 244.9363 15.73073087 10052,6728.257,91.541,352.531,347.713,0.0
53839.0,STARLINK-4784,PAYLOAD,2022-11-18 14:00:01,15.72714307,0.0004308,53.2167,319.1878,300.0075,12.9892,-0.0086844,-0.01073547,0.0,0 STARLINK-4784,1 53839U 22114X   22322.58334491 -.01073547  00000-0 -86844-2 0  9997,2 53839  53.2167 319.1878 0004308 300.0075  12.9892 15.72714307 10101,6729.28,91.561,354.0440000000001,348.246,0.0
53839.0,STARLINK-4784,PAYLOAD,2022-11-18 22:00:00,15.71938855,0.0006293,53.217,317.5389,278.3116,122.5594,-0.0094039,-0.01120411,0.0,0 STARLINK-4784,1 53839U 22114X   22322.91667824 -.01120411  00000-0 -94039-2 0  9991,2 53839  53.2170 317.5389 0006293 278.3116 122.5594 15.71938855 10159,6731.493,91.607,357.594,349.122,0.0
53839.0,STARLINK-4784,PAYLOAD,2022-11-19 14:00:01,15.70356358,0.0005372,53.2162,314.2516,270.8364,302.8667,-0.010697,-0.01203116,0.0,0 STARLINK-4784,1 53839U 22114X   22323.58334491 -.01203116  00000-0 -10697-1 0  9997,2 53839  53.2162 314.2516 0005372 270.8364 302.8667 15.70356358  1307,6736.015,91.699,361.49800000000016,354.261,0.0
53839.0,STARLINK-4784,PAYLOAD,2022-11-19 22:00:00,15.69482624,0.0002189,53.2173,312.6078,266.30400000000003,32.3859,-0.010193,-0.01094893,0.0,0 STARLINK-4784,1 53839U 22114X   22323.91667824 -.01094893  00000-0 -10193-1 0  9994,2 53839  53.2173 312.6078 0002189 266.3040  32.3859 15.69482624  1300,6738.514,91.75,361.855,358.904,0.0
53839.0,STARLINK-4784,PAYLOAD,2022-11-20 14:00:01,15.67939493,6.92e-05,53.2164,309.3327,330.9359,134.7013,-0.012179,-0.01232514,0.0,0 STARLINK-4784,1 53839U 22114X   22324.58334491 -.01232514  00000-0 -12179-1 0  9999,2 53839  53.2164 309.3327 0000692 330.9359 134.7013 15.67939493 10429,6742.935,91.84,365.267,364.333,0.0
53839.0,STARLINK-4784,PAYLOAD,2022-11-20 22:00:00,15.67057718,0.0001211,53.2175,307.6953,65.227,122.4688,-0.011565,-0.01138597,0.0,0 STARLINK-4784,1 53839U 22114X   22324.91667824 -.01138597  00000-0 -11565-1 0  9999,2 53839  53.2175 307.6953 0001211  65.2270 122.4688 15.67057718  1305,6745.464,91.892,368.146,366.512,0.0
53839.0,STARLINK-4784,PAYLOAD,2022-11-21 08:00:01,15.66037983,9.77e-05,53.2172,305.6562,82.9,295.9535,-0.012009,-0.01134568,0.0,0 STARLINK-4784,1 53839U 22114X   22325.33334491 -.01134568  00000-0 -12009-1 0  9995,2 53839  53.2172 305.6562 0000977  82.9000 295.9535 15.66037983 10534,6748.392,91.952,370.917,369.598,0.0
53839.0,STARLINK-4784,PAYLOAD,2022-11-21 14:00:01,15.65446505,0.0001011,53.2163,304.4318,71.3847,277.4208,-0.012606,-0.01160157,0.0,0 STARLINK-4784,1 53839U 22114X   22325.58334491 -.01160157  00000-0 -12606-1 0  9998,2 53839  53.2163 304.4318 0001011  71.3847 277.4208 15.65446505  1301,6750.092,91.987,372.639,371.274,0.0
53839.0,STARLINK-4784,PAYLOAD,2022-11-21 22:00:00,15.64647057,0.0001145,53.2163,302.8009,67.6875,0.2022,-0.01321,-0.01175694,0.0,0 STARLINK-4784,1 53839U 22114X   22325.91667824 -.01175694  00000-0 -13210-1 0  9998,2 53839  53.2163 302.8009 0001145  67.6875   0.2022 15.64647057  1307,6752.391,92.034,375.029,373.483,0.0
53839.0,STARLINK-4784,PAYLOAD,2022-11-22 08:00:01,15.6360821,0.0001248,53.2167,300.769,89.5937,165.7977,-0.013423,-0.01149002,0.0,0 STARLINK-4784,1 53839U 22114X   22326.33334491 -.01149002  00000-0 -13423-1 0  9996,2 53839  53.2167 300.7690 0001248  89.5937 165.7977 15.63608210 10695,6755.380999999999,92.095,378.09,376.403,0.0
53839.0,STARLINK-4784,PAYLOAD,2022-11-22 14:00:01,15.6301138,0.0001242,53.2163,299.5487,76.4144,146.7973,-0.0139889999999999,-0.01167502,0.0,0 STARLINK-4784,1 53839U 22114X   22326.58335648 -.01167502  00000-0 -13989-1 0  9990,2 53839  53.2163 299.5487 0001242  76.4144 146.7973 15.63011380  1308,6757.101,92.13,379.805,378.127,0.0
53839.0,STARLINK-4784,PAYLOAD,2022-11-22 22:00:00,15.62192086,0.0001107999999999,53.2165,297.9237,74.4967,224.8112,-0.014312,-0.01157546,0.0,0 STARLINK-4784,1 53839U 22114X   22326.91667824 -.01157546  00000-0 -14312-1 0  9999,2 53839  53.2165 297.9237 0001108  74.4967 224.8112 15.62192086  1302,6759.4630000000025,92.178,382.077,380.579,0.0
53839.0,STARLINK-4784,PAYLOAD,2022-11-23 08:00:01,15.61155432,0.0001175,53.2173,295.8991,83.5749,39.5656,-0.01454,-0.01131986,0.0,0 STARLINK-4784,1 53839U 22114X   22327.33334491 -.01131986  00000-0 -14540-1 0  9990,2 53839  53.2173 295.8991 0001175  83.5749  39.5656 15.61155432 10855,6762.455,92.239,385.115,383.526,0.0
53839.0,STARLINK-4784,PAYLOAD,2022-11-23 14:00:01,15.60557735,0.000121,53.2167,294.6832,68.5754,20.1209,-0.015138,-0.01149664,0.0,0 STARLINK-4784,1 53839U 22114X   22327.58334491 -.01149664  00000-0 -15138-1 0  9993,2 53839  53.2167 294.6832 0001210  68.5754  20.1209 15.60557735  1309,6764.182,92.275,386.865,385.228,0.0
53839.0,STARLINK-4784,PAYLOAD,2022-11-23 22:00:00,15.59776245,0.0001357,53.2166,293.0644,66.5137,95.3909,-0.016199,-0.01189368,0.0,0 STARLINK-4784,1 53839U 22114X   22327.91667824 -.01189368  00000-0 -16199-1 0  9992,2 53839  53.2166 293.0644 0001357  66.5137  95.3909 15.59776245  1305,6766.441,92.321,389.224,387.388,0.0
53839.0,STARLINK-4784,PAYLOAD,2022-11-24 08:00:01,15.58716327,0.0001067,53.217,291.0473,94.1769,247.9053,-0.016009,-0.01134311,0.0,0 STARLINK-4784,1 53839U 22114X   22328.33334491 -.01134311  00000-0 -16009-1 0  9998,2 53839  53.2170 291.0473 0001067  94.1769 247.9053 15.58716327 11001,6769.5080000000025,92.384,392.096,390.651,0.0
53839.0,STARLINK-4784,PAYLOAD,2022-11-24 14:00:01,15.58127904,0.0001095,53.2165,289.8358,74.893,230.5403,-0.016856,-0.01164607,0.0,0 STARLINK-4784,1 53839U 22114X   22328.58334491 -.01164607  00000-0 -16856-1 0  9996,2 53839  53.2165 289.8358 0001095  74.8930 230.5403 15.58127904  1304,6771.212,92.419,393.819,392.336,0.0
53839.0,STARLINK-4784,PAYLOAD,2022-11-24 22:00:00,15.57300074,0.0001095,53.2166,288.2229,75.2459,300.4861,-0.017052,-0.01144003,0.0,0 STARLINK-4784,1 53839U 22114X   22328.91667824 -.01144003  00000-0 -17052-1 0  9999,2 53839  53.2166 288.2229 0001095  75.2459 300.4861 15.57300074  1301,6773.611999999999,92.468,396.219,394.735,0.0
53839.0,STARLINK-4784,PAYLOAD,2022-11-25 08:00:01,15.5626922,0.0001261,53.217,286.2131,84.9763,107.2503,-0.017387,-0.0112429,0.0,0 STARLINK-4784,1 53839U 22114X   22329.33334491 -.01124290  00000-0 -17387-1 0  9994,2 53839  53.2170 286.2131 0001261  84.9763 107.2503 15.56269220 11163,6776.603,92.529,399.322,397.61300000000006,0.0
53839.0,STARLINK-4784,PAYLOAD,2022-11-25 14:00:01,15.55671872,0.000121,53.2169,285.0058,71.4249,81.9577,-0.01812,-0.01143754,0.0,0 STARLINK-4784,1 53839U 22114X   22329.58334491 -.01143754  00000-0 -18120-1 0  9993,2 53839  53.2169 285.0058 0001210  71.4249  81.9577 15.55671872  1303,6778.337,92.565,401.022,399.382,0.0
53839.0,STARLINK-4784,PAYLOAD,2022-11-25 22:00:00,15.54869049,0.0001262999999999,53.2166,283.399,75.6065,145.1283,-0.018885,-0.01155751,0.0,0 STARLINK-4784,1 53839U 22114X   22329.91667824 -.01155751  00000-0 -18885-1 0  9997,2 53839  53.2166 283.3990 0001263  75.6065 145.1283 15.54869049 11252,6780.67,92.612,403.392,401.679,0.0
53839.0,STARLINK-4784,PAYLOAD,2022-11-26 14:00:01,15.5322301,0.0001022,53.2172,280.1935,71.5709,280.9565,-0.019621,-0.01132629,0.0,0 STARLINK-4784,1 53839U 22114X   22330.58334491 -.01132629  00000-0 -19621-1 0  9991,2 53839  53.2172 280.1935 0001022  71.5709 280.9565 15.53223010  1303,6785.46,92.71,408.019,406.632,0.0
53839.0,STARLINK-4784,PAYLOAD,2022-11-26 22:00:00,15.52430375,0.0001129,53.2166,278.5928,65.4861,351.4552,-0.020717,-0.01158992,0.0,0 STARLINK-4784,1 53839U 22114X   22330.91667824 -.01158992  00000-0 -20717-1 0  9996,2 53839  53.2166 278.5928 0001129  65.4861 351.4552 15.52430375 11414,6787.77,92.758,410.401,408.86800000000005,0.0
53839.0,STARLINK-4784,PAYLOAD,2022-11-27 14:00:01,15.5078012,0.0001259,53.2172,275.399,77.3413,105.5274,-0.021361,-0.01129123,0.0,0 STARLINK-4784,1 53839U 22114X   22331.58334491 -.01129123  00000-0 -21361-1 0  9991,2 53839  53.2172 275.3990 0001259  77.3413 105.5274 15.50780120  1304,6792.584,92.856,415.304,413.594,0.0
53839.0,STARLINK-4784,PAYLOAD,2022-11-27 22:00:00,15.49995508,0.000125,53.2164,273.8044,83.6158,160.7285,-0.022749,-0.01182913,0.0,0 STARLINK-4784,1 53839U 22114X   22331.91667824 -.01182913  00000-0 -22749-1 0  9994,2 53839  53.2164 273.8044 0001250  83.6158 160.7285 15.49995508  1306,6794.876,92.903,417.591,415.892,0.0
53839.0,STARLINK-4784,PAYLOAD,2022-11-28 00:00:00,15.49770538,0.0001114,53.2169,273.4067,77.6999,271.8761,-0.022367,-0.01156185,0.0,0 STARLINK-4784,1 53839U 22114X   22332.00001157 -.01156185  00000-0 -22367-1 0  9994,2 53839  53.2169 273.4067 0001114  77.6999 271.8761 15.49770538 11574,6795.534000000002,92.917,418.156,416.642,0.0
